start=new Date('2023-02-04T00:00:00.000Z').valueOf();
sats=[{"PERIOD":"95.436","RA_OF_ASC_NODE":"343.7191","REF_FRAME":"TEME","TLE_LINE1":"1 51151U 22005AZ  23034.28093912  .00009481  00000-0  61266-3 0  9994","EPHEMERIS_TYPE":"0","OBJECT_NAME":"STARLINK-3361","APOAPSIS":"540.672","DECAY_DATE":null,"MEAN_ANOMALY":"280.3457","CLASSIFICATION_TYPE":"U","FILE":"3770323","ELEMENT_SET_NO":"999","MEAN_MOTION_DOT":"0.00009481","RCS_SIZE":"LARGE","SEMIMAJOR_AXIS":"6917.819","TLE_LINE2":"2 51151  53.2197 343.7191 0001429  79.7697 280.3457 15.08860130 57947","ARG_OF_PERICENTER":"79.7697","LAUNCH_DATE":"2022-01-19","REV_AT_EPOCH":"5794","BSTAR":"0.00061266000000","INCLINATION":"53.2197","OBJECT_TYPE":"PAYLOAD","OBJECT_ID":"2022-005AZ","ECCENTRICITY":"0.00014290","TIME_SYSTEM":"UTC","NORAD_CAT_ID":"51151","MEAN_MOTION_DDOT":"0.0000000000000","MEAN_MOTION":"15.08860130","CENTER_NAME":"EARTH","PERIAPSIS":"538.695","GP_ID":"224312224","SITE":"AFETR","MEAN_ELEMENT_THEORY":"SGP4","EPOCH":"2023-02-03T06:44:33.139968","COUNTRY_CODE":"US"},{"DECAY_DATE":null,"CLASSIFICATION_TYPE":"U","MEAN_ANOMALY":"271.8992","ELEMENT_SET_NO":"999","FILE":"3770323","TLE_LINE2":"2 51152  53.2178 343.7071 0001370  88.2157 271.8992 15.08855787 57946","SEMIMAJOR_AXIS":"6917.832","RCS_SIZE":"LARGE","MEAN_MOTION_DOT":"0.00006830","PERIOD":"95.437","RA_OF_ASC_NODE":"343.7071","EPHEMERIS_TYPE":"0","TLE_LINE1":"1 51152U 22005BA  23034.28461731  .00006830  00000-0  44663-3 0  9990","REF_FRAME":"TEME","OBJECT_NAME":"STARLINK-3364","APOAPSIS":"540.645","MEAN_MOTION":"15.08855787","MEAN_MOTION_DDOT":"0.0000000000000","PERIAPSIS":"538.749","CENTER_NAME":"EARTH","EPOCH":"2023-02-03T06:49:50.935584","GP_ID":"224313475","MEAN_ELEMENT_THEORY":"SGP4","SITE":"AFETR","COUNTRY_CODE":"US","REV_AT_EPOCH":"5794","ARG_OF_PERICENTER":"88.2157","LAUNCH_DATE":"2022-01-19","OBJECT_ID":"2022-005BA","OBJECT_TYPE":"PAYLOAD","INCLINATION":"53.2178","BSTAR":"0.00044663000000","ECCENTRICITY":"0.00013700","NORAD_CAT_ID":"51152","TIME_SYSTEM":"UTC"},{"CLASSIFICATION_TYPE":"U","MEAN_ANOMALY":"287.9568","DECAY_DATE":null,"SEMIMAJOR_AXIS":"6917.843","TLE_LINE2":"2 51460  53.2163 314.2460 0001343  72.1571 287.9568 15.08852317 56154","MEAN_MOTION_DOT":"0.00004926","RCS_SIZE":"LARGE","FILE":"3770323","ELEMENT_SET_NO":"999","RA_OF_ASC_NODE":"314.2460","PERIOD":"95.437","OBJECT_NAME":"STARLINK-3167","APOAPSIS":"540.637","TLE_LINE1":"1 51460U 22010E   23034.16593961  .00004926  00000-0  32729-3 0  9990","EPHEMERIS_TYPE":"0","REF_FRAME":"TEME","CENTER_NAME":"EARTH","PERIAPSIS":"538.779","MEAN_MOTION":"15.08852317","MEAN_MOTION_DDOT":"0.0000000000000","COUNTRY_CODE":"US","SITE":"AFETR","GP_ID":"224312981","MEAN_ELEMENT_THEORY":"SGP4","EPOCH":"2023-02-03T03:58:57.182304","OBJECT_TYPE":"PAYLOAD","OBJECT_ID":"2022-010E","BSTAR":"0.00032729000000","INCLINATION":"53.2163","REV_AT_EPOCH":"5615","ARG_OF_PERICENTER":"72.1571","LAUNCH_DATE":"2022-02-03","NORAD_CAT_ID":"51460","TIME_SYSTEM":"UTC","ECCENTRICITY":"0.00013430"},{"RA_OF_ASC_NODE":"311.7842","PERIOD":"95.438","APOAPSIS":"540.601","OBJECT_NAME":"STARLINK-3181","REF_FRAME":"TEME","TLE_LINE1":"1 51461U 22010F   23034.71426229 -.00001160  00000-0 -54826-4 0  9996","EPHEMERIS_TYPE":"0","MEAN_ANOMALY":"275.9099","CLASSIFICATION_TYPE":"U","DECAY_DATE":null,"MEAN_MOTION_DOT":"-0.00001160","RCS_SIZE":"LARGE","SEMIMAJOR_AXIS":"6917.883","TLE_LINE2":"2 51461  53.2160 311.7842 0001233  84.2034 275.9099 15.08839104 56238","FILE":"3770748","ELEMENT_SET_NO":"999","BSTAR":"-0.00005482600000","INCLINATION":"53.2160","OBJECT_TYPE":"PAYLOAD","OBJECT_ID":"2022-010F","LAUNCH_DATE":"2022-02-03","ARG_OF_PERICENTER":"84.2034","REV_AT_EPOCH":"5623","TIME_SYSTEM":"UTC","NORAD_CAT_ID":"51461","ECCENTRICITY":"0.00012330","CENTER_NAME":"EARTH","PERIAPSIS":"538.895","MEAN_MOTION_DDOT":"0.0000000000000","MEAN_MOTION":"15.08839104","COUNTRY_CODE":"US","SITE":"AFETR","GP_ID":"224348236","MEAN_ELEMENT_THEORY":"SGP4","EPOCH":"2023-02-03T17:08:32.261856"},{"EPHEMERIS_TYPE":"0","TLE_LINE1":"1 51462U 22010G   23034.77682331  .00000670  00000-0  60176-4 0  9999","REF_FRAME":"TEME","APOAPSIS":"540.701","OBJECT_NAME":"STARLINK-3166","PERIOD":"95.438","RA_OF_ASC_NODE":"311.5017","ELEMENT_SET_NO":"999","FILE":"3770748","TLE_LINE2":"2 51462  53.2151 311.5017 0001370  92.4766 267.6383 15.08837330 56240","SEMIMAJOR_AXIS":"6917.889","RCS_SIZE":"LARGE","MEAN_MOTION_DOT":"0.00000670","DECAY_DATE":null,"CLASSIFICATION_TYPE":"U","MEAN_ANOMALY":"267.6383","ECCENTRICITY":"0.00013700","NORAD_CAT_ID":"51462","TIME_SYSTEM":"UTC","REV_AT_EPOCH":"5624","ARG_OF_PERICENTER":"92.4766","LAUNCH_DATE":"2022-02-03","OBJECT_TYPE":"PAYLOAD","OBJECT_ID":"2022-010G","INCLINATION":"53.2151","BSTAR":"0.00006017600000","EPOCH":"2023-02-03T18:38:37.533984","MEAN_ELEMENT_THEORY":"SGP4","GP_ID":"224348486","SITE":"AFETR","COUNTRY_CODE":"US","MEAN_MOTION":"15.08837330","MEAN_MOTION_DDOT":"0.0000000000000","PERIAPSIS":"538.806","CENTER_NAME":"EARTH"},{"OBJECT_ID":"2022-010H","OBJECT_TYPE":"PAYLOAD","BSTAR":"0.00008467600000","INCLINATION":"53.2147","REV_AT_EPOCH":"5593","ARG_OF_PERICENTER":"81.3101","LAUNCH_DATE":"2022-02-03","NORAD_CAT_ID":"51463","TIME_SYSTEM":"UTC","ECCENTRICITY":"0.00017330","CENTER_NAME":"EARTH","PERIAPSIS":"538.540","MEAN_MOTION":"15.08841976","MEAN_MOTION_DDOT":"0.0000000000000","COUNTRY_CODE":"US","MEAN_ELEMENT_THEORY":"SGP4","GP_ID":"224347235","SITE":"AFETR","EPOCH":"2023-02-03T18:01:31.901088","RA_OF_ASC_NODE":"311.6192","PERIOD":"95.437","OBJECT_NAME":"STARLINK-3419","APOAPSIS":"540.938","TLE_LINE1":"1 51463U 22010H   23034.75106367  .00001060  00000-0  84676-4 0  9993","EPHEMERIS_TYPE":"0","REF_FRAME":"TEME","CLASSIFICATION_TYPE":"U","MEAN_ANOMALY":"278.8087","DECAY_DATE":null,"SEMIMAJOR_AXIS":"6917.874","TLE_LINE2":"2 51463  53.2147 311.6192 0001733  81.3101 278.8087 15.08841976 55935","MEAN_MOTION_DOT":"0.00001060","RCS_SIZE":"LARGE","FILE":"3770748","ELEMENT_SET_NO":"999"},{"PERIOD":"95.438","RA_OF_ASC_NODE":"311.8298","REF_FRAME":"TEME","TLE_LINE1":"1 51464U 22010J   23034.70322535  .00000178  00000-0  29289-4 0  9994","EPHEMERIS_TYPE":"0","APOAPSIS":"540.660","OBJECT_NAME":"STARLINK-3189","DECAY_DATE":null,"MEAN_ANOMALY":"266.5052","CLASSIFICATION_TYPE":"U","FILE":"3770748","ELEMENT_SET_NO":"999","MEAN_MOTION_DOT":"0.00000178","RCS_SIZE":"LARGE","SEMIMAJOR_AXIS":"6917.896","TLE_LINE2":"2 51464  53.2165 311.8298 0001299  93.6089 266.5052 15.08834732 56730","ARG_OF_PERICENTER":"93.6089","LAUNCH_DATE":"2022-02-03","REV_AT_EPOCH":"5673","BSTAR":"0.00002928900000","INCLINATION":"53.2165","OBJECT_TYPE":"PAYLOAD","OBJECT_ID":"2022-010J","ECCENTRICITY":"0.00012990","TIME_SYSTEM":"UTC","NORAD_CAT_ID":"51464","MEAN_MOTION_DDOT":"0.0000000000000","MEAN_MOTION":"15.08834732","CENTER_NAME":"EARTH","PERIAPSIS":"538.863","MEAN_ELEMENT_THEORY":"SGP4","GP_ID":"224347485","SITE":"AFETR","EPOCH":"2023-02-03T16:52:38.670240","COUNTRY_CODE":"US"},{"NORAD_CAT_ID":"51465","TIME_SYSTEM":"UTC","ECCENTRICITY":"0.00019900","OBJECT_ID":"2022-010K","OBJECT_TYPE":"PAYLOAD","BSTAR":"0.00028716000000","INCLINATION":"53.2143","REV_AT_EPOCH":"5674","LAUNCH_DATE":"2022-02-03","ARG_OF_PERICENTER":"97.0462","COUNTRY_CODE":"US","GP_ID":"224348736","SITE":"AFETR","MEAN_ELEMENT_THEORY":"SGP4","EPOCH":"2023-02-03T18:22:44.479776","CENTER_NAME":"EARTH","PERIAPSIS":"538.369","MEAN_MOTION":"15.08840042","MEAN_MOTION_DDOT":"0.0000000000000","OBJECT_NAME":"STARLINK-3401","APOAPSIS":"541.122","TLE_LINE1":"1 51465U 22010K   23034.76579259  .00004285  00000-0  28716-3 0  9994","EPHEMERIS_TYPE":"0","REF_FRAME":"TEME","RA_OF_ASC_NODE":"311.5549","PERIOD":"95.438","SEMIMAJOR_AXIS":"6917.880","TLE_LINE2":"2 51465  53.2143 311.5549 0001990  97.0462 263.0756 15.08840042 56749","MEAN_MOTION_DOT":"0.00004285","RCS_SIZE":"LARGE","FILE":"3770748","ELEMENT_SET_NO":"999","CLASSIFICATION_TYPE":"U","MEAN_ANOMALY":"263.0756","DECAY_DATE":null},{"PERIAPSIS":"538.707","CENTER_NAME":"EARTH","MEAN_MOTION_DDOT":"0.0000000000000","MEAN_MOTION":"15.08851056","COUNTRY_CODE":"US","EPOCH":"2023-02-03T19:31:36.924384","MEAN_ELEMENT_THEORY":"SGP4","GP_ID":"224348986","SITE":"AFETR","INCLINATION":"53.2137","BSTAR":"0.00036832000000","OBJECT_TYPE":"PAYLOAD","OBJECT_ID":"2022-010M","LAUNCH_DATE":"2022-02-03","ARG_OF_PERICENTER":"82.6919","REV_AT_EPOCH":"5594","TIME_SYSTEM":"UTC","NORAD_CAT_ID":"51467","ECCENTRICITY":"0.00014520","MEAN_ANOMALY":"277.4238","CLASSIFICATION_TYPE":"U","DECAY_DATE":null,"RCS_SIZE":"LARGE","MEAN_MOTION_DOT":"0.00005580","TLE_LINE2":"2 51467  53.2137 311.3410 0001452  82.6919 277.4238 15.08851056 55941","SEMIMAJOR_AXIS":"6917.847","ELEMENT_SET_NO":"999","FILE":"3770748","RA_OF_ASC_NODE":"311.3410","PERIOD":"95.437","APOAPSIS":"540.716","OBJECT_NAME":"STARLINK-3178","REF_FRAME":"TEME","EPHEMERIS_TYPE":"0","TLE_LINE1":"1 51467U 22010M   23034.81362181  .00005580  00000-0  36832-3 0  9993"},{"PERIOD":"95.438","RA_OF_ASC_NODE":"311.5859","REF_FRAME":"TEME","TLE_LINE1":"1 51468U 22010N   23034.75842454  .00002194  00000-0  15592-3 0  9991","EPHEMERIS_TYPE":"0","APOAPSIS":"540.899","OBJECT_NAME":"STARLINK-3174","DECAY_DATE":null,"MEAN_ANOMALY":"281.9122","CLASSIFICATION_TYPE":"U","FILE":"3770748","ELEMENT_SET_NO":"999","MEAN_MOTION_DOT":"0.00002194","RCS_SIZE":"LARGE","SEMIMAJOR_AXIS":"6917.880","TLE_LINE2":"2 51468  53.2147 311.5859 0001668  78.2057 281.9122 15.08840066 55935","ARG_OF_PERICENTER":"78.2057","LAUNCH_DATE":"2022-02-03","REV_AT_EPOCH":"5593","BSTAR":"0.00015592000000","INCLINATION":"53.2147","OBJECT_ID":"2022-010N","OBJECT_TYPE":"PAYLOAD","ECCENTRICITY":"0.00016680","TIME_SYSTEM":"UTC","NORAD_CAT_ID":"51468","MEAN_MOTION_DDOT":"0.0000000000000","MEAN_MOTION":"15.08840066","CENTER_NAME":"EARTH","PERIAPSIS":"538.591","SITE":"AFETR","GP_ID":"224347736","MEAN_ELEMENT_THEORY":"SGP4","EPOCH":"2023-02-03T18:12:07.880256","COUNTRY_CODE":"US"}];
